NORAD_CAT_ID,OBJECT_NAME,OBJECT_TYPE,EPOCH,MEAN_MOTION,ECCENTRICITY,INCLINATION,RA_OF_ASC_NODE,ARG_OF_PERICENTER,MEAN_ANOMALY,BSTAR,MEAN_MOTION_DOT,MEAN_MOTION_DDOT,TLE_LINE0,TLE_LINE1,TLE_LINE2,SEMIMAJOR_AXIS,PERIOD,APOGEE,PERIGEE,DECAYED
53623.0,STARLINK-4573,PAYLOAD,2024-05-25 13:00:31,15.08836294,0.0001288,53.217,286.0857,92.8475,267.2665,2.0278e-05,3.5e-07,0.0,0 STARLINK-4573,1 53623U 22104AM  24146.54203444  .00000035  00000-0  20278-4 0  9992,2 53623  53.2170 286.0857 0001288  92.8475 267.2665 15.08836294 96464,6917.892,95.438,540.648,538.866,0.0
53623.0,STARLINK-4573,PAYLOAD,2024-05-25 14:35:54,15.08835187,0.000111,53.2172,285.7876,103.9854,256.1261,3.9439e-06,-2.25e-06,0.0,0 STARLINK-4573,1 53623U 22104AM  24146.60827435 -.00000225  00000-0  39439-5 0  9993,2 53623  53.2172 285.7876 0001110 103.9854 256.1261 15.08835187 97158,6917.895,95.438,540.528,538.992,0.0
53623.0,STARLINK-4573,PAYLOAD,2024-05-25 19:22:04,15.08830974,0.0001123,53.2181,284.8997,78.7857,281.3261,-7.5862e-06,-4.08e-06,0.0,0 STARLINK-4573,1 53623U 22104AM  24146.80700224 -.00000408  00000-0 -75862-5 0  9995,2 53623  53.2181 284.8997 0001123  78.7857 281.3261 15.08830974 96505,6917.908,95.438,540.55,538.996,0.0
53623.0,STARLINK-4573,PAYLOAD,2024-05-26 01:43:38,15.08814093,0.0001238,53.2178,283.7111,72.4852,287.6275,-0.00018256,-3.19e-05,0.0,0 STARLINK-4573,1 53623U 22104AM  24147.07197630 -.00003190  00000-0 -18256-3 0  9999,2 53623  53.2178 283.7111 0001238  72.4852 287.6275 15.08814093 96542,6917.96,95.439,540.681,538.968,0.0
53623.0,STARLINK-4573,PAYLOAD,2024-05-26 12:51:19,15.08833544,0.0001207,53.218,281.6329,70.494,289.6183,7.8822e-05,9.67e-06,0.0,0 STARLINK-4573,1 53623U 22104AM  24147.53564058  .00000967  00000-0  78822-4 0  9995,2 53623  53.2180 281.6329 0001207  70.4940 289.6183 15.08833544 96615,6917.9,95.438,540.6,538.93,0.0
53623.0,STARLINK-4573,PAYLOAD,2024-05-26 14:26:42,15.0883393,0.0001111,53.2187,281.3375,68.2146,291.8964,0.00010276,1.348e-05,0.0,0 STARLINK-4573,1 53623U 22104AM  24147.60188022  .00001348  00000-0  10276-3 0  9998,2 53623  53.2187 281.3375 0001111  68.2146 291.8964 15.08833930 97305,6917.899,95.438,540.533,538.995,0.0
53623.0,STARLINK-4573,PAYLOAD,2024-05-27 01:34:23,15.08852004,8.6e-05,53.218,279.2613,124.1037,236.0037,6.2425e-05,7.06e-06,0.0,0 STARLINK-4573,1 53623U 22104AM  24148.06554693  .00000706  00000-0  62425-4 0  9991,2 53623  53.2180 279.2613 0000860 124.1037 236.0037 15.08852004 96696,6917.844,95.437,540.304,539.114,0.0
53623.0,STARLINK-4573,PAYLOAD,2024-05-27 12:42:06,15.08837118,0.000111,53.2179,277.17,67.5411,292.5699,0.00016783,2.384e-05,0.0,0 STARLINK-4573,1 53623U 22104AM  24148.52923743  .00002384  00000-0  16783-3 0  9997,2 53623  53.2179 277.1700 0001110  67.5411 292.5699 15.08837118 96761,6917.889,95.438,540.522,538.986,0.0
53623.0,STARLINK-4573,PAYLOAD,2024-05-27 14:17:29,15.08837283,0.0001106,53.2181,276.8727,67.9853,292.1257,0.00016967,2.413e-05,0.0,0 STARLINK-4573,1 53623U 22104AM  24148.59547779  .00002413  00000-0  16967-3 0  9992,2 53623  53.2181 276.8727 0001106  67.9853 292.1257 15.08837283 97454,6917.889,95.438,540.519,538.989,0.0
53623.0,STARLINK-4573,PAYLOAD,2024-05-27 15:52:52,15.08837762,0.0001109,53.2181,276.5753,68.2114,291.8996,0.00017564,2.508e-05,0.0,0 STARLINK-4573,1 53623U 22104AM  24148.66171793  .00002508  00000-0  17564-3 0  9998,2 53623  53.2181 276.5753 0001109  68.2114 291.8996 15.08837762 97466,6917.887,95.438,540.519,538.985,0.0
53623.0,STARLINK-4573,PAYLOAD,2024-05-28 14:08:16,15.08839559,0.0001,53.2173,272.4113,79.0416,281.0688,5.0788e-05,5.21e-06,0.0,0 STARLINK-4573,1 53623U 22104AM  24149.58908049  .00000521  00000-0  50788-4 0  9991,2 53623  53.2173 272.4113 0001000  79.0416 281.0688 15.08839559 97608,6917.882,95.438,540.439,539.055,0.0
53623.0,STARLINK-4573,PAYLOAD,2024-05-28 15:43:39,15.08840179,0.0001047,53.2177,272.1137,84.5058,275.6054,5.0866e-05,5.22e-06,0.0,0 STARLINK-4573,1 53623U 22104AM  24149.65531977  .00000522  00000-0  50866-4 0  9999,2 53623  53.2177 272.1137 0001047  84.5058 275.6054 15.08840179 96930,6917.88,95.438,540.469,539.021,0.0
53623.0,STARLINK-4573,PAYLOAD,2024-05-29 13:59:03,15.08842379,0.0001092,53.218,267.9511,82.9133,277.1983,8.6835e-05,1.095e-05,0.0,0 STARLINK-4573,1 53623U 22104AM  24150.58267648  .00001095  00000-0  86835-4 0  9995,2 53623  53.2180 267.9511 0001092  82.9133 277.1983 15.08842379 97751,6917.873,95.437,540.494,538.983,0.0
53623.0,STARLINK-4573,PAYLOAD,2024-05-29 15:34:26,15.08843063,0.0001114,53.2182,267.6538,84.1303,275.9816,9.1054e-05,1.162e-05,0.0,0 STARLINK-4573,1 53623U 22104AM  24150.64891584  .00001162  00000-0  91054-4 0  9998,2 53623  53.2182 267.6538 0001114  84.1303 275.9816 15.08843063 97760,6917.871,95.437,540.507,538.965,0.0
53623.0,STARLINK-4573,PAYLOAD,2024-05-30 12:14:26,15.08845547,0.0001071,53.2181,263.7885,89.2922,270.8193,0.0001146,1.537e-05,0.0,0 STARLINK-4573,1 53623U 22104AM  24151.51003355  .00001537  00000-0  11460-3 0  9994,2 53623  53.2181 263.7885 0001071  89.2922 270.8193 15.08845547 97217,6917.863,95.437,540.469,538.988,0.0
53623.0,STARLINK-4573,PAYLOAD,2024-05-30 13:49:49,15.08846618,0.0001094,53.218,263.4911,87.338,272.7737,0.00012363,1.681e-05,0.0,0 STARLINK-4573,1 53623U 22104AM  24151.57627268  .00001681  00000-0  12363-3 0  9998,2 53623  53.2180 263.4911 0001094  87.3380 272.7737 15.08846618 97906,6917.86,95.437,540.482,538.968,0.0
53623.0,STARLINK-4573,PAYLOAD,2024-05-31 13:40:36,15.0884534,0.0001072,53.2181,259.0302,97.6701,262.4413,7.2491e-05,8.66e-06,0.0,0 STARLINK-4573,1 53623U 22104AM  24152.56987128  .00000866  00000-0  72491-4 0  9995,2 53623  53.2181 259.0302 0001072  97.6701 262.4413 15.08845340 98054,6917.864,95.437,540.471,538.987,0.0
53623.0,STARLINK-4573,PAYLOAD,2024-06-01 13:31:24,15.08838725,0.0001189,53.2185,254.5742,87.9638,272.149,3.9828e-05,3.46e-06,0.0,0 STARLINK-4573,1 53623U 22104AM  24153.56347655  .00000346  00000-0  39828-4 0  9991,2 53623  53.2185 254.5742 0001189  87.9638 272.1490 15.08838725 97529,6917.884,95.438,540.572,538.927,0.0
53623.0,STARLINK-4573,PAYLOAD,2024-06-02 13:22:11,15.08829717,0.0001159,53.2178,250.1106,102.4586,257.6536,5.9065e-06,-1.94e-06,0.0,0 STARLINK-4573,1 53623U 22104AM  24154.55708306 -.00000194  00000-0  59065-5 0  9993,2 53623  53.2178 250.1106 0001159 102.4586 257.6536 15.08829717 97675,6917.912,95.438,540.579,538.975,0.0
53623.0,STARLINK-4573,PAYLOAD,2024-06-02 22:54:30,15.08838378,0.0001199,53.2188,248.3246,95.0779,265.035,6.75e-05,7.87e-06,0.0,0 STARLINK-4573,1 53623U 22104AM  24154.95451670  .00000787  00000-0  67500-4 0  9995,2 53623  53.2188 248.3246 0001199  95.0779 265.0350 15.08838378 97732,6917.885,95.438,540.58,538.921,0.0
53623.0,STARLINK-4573,PAYLOAD,2024-06-03 13:12:58,15.08838128,0.000138,53.219,245.6545,104.0602,256.0544,7.4165e-05,8.93e-06,0.0,0 STARLINK-4573,1 53623U 22104AM  24155.55068006  .00000893  00000-0  74165-4 0  9992,2 53623  53.2190 245.6545 0001380 104.0602 256.0544 15.08838128 98509,6917.886,95.438,540.706,538.796,0.0
53623.0,STARLINK-4573,PAYLOAD,2024-06-03 22:45:16,15.08851062,0.0001195,53.218,243.8644,81.3884,278.7243,0.00019731,2.855e-05,0.0,0 STARLINK-4573,1 53623U 22104AM  24155.94810746  .00002855  00000-0  19731-3 0  9998,2 53623  53.2180 243.8644 0001195  81.3884 278.7243 15.08851062 97880,6917.847,95.437,540.538,538.885,0.0
53623.0,STARLINK-4573,PAYLOAD,2024-06-04 11:28:23,15.08830385,0.0001281,53.2164,241.4854,78.6198,281.4938,6.2862e-05,7.12e-06,0.0,0 STARLINK-4573,1 53623U 22104AM  24156.47804698  .00000712  00000-0  62862-4 0  9990,2 53623  53.2164 241.4854 0001281  78.6198 281.4938 15.08830385 97968,6917.91,95.438,540.661,538.889,0.0
53623.0,STARLINK-4573,PAYLOAD,2024-06-04 22:36:04,15.08845688,0.0001546,53.2188,239.4058,88.5733,271.5437,0.00011738,1.581e-05,0.0,0 STARLINK-4573,1 53623U 22104AM  24156.94171679  .00001581  00000-0  11738-3 0  9998,2 53623  53.2188 239.4058 0001546  88.5733 271.5437 15.08845688 98716,6917.863,95.437,540.798,538.659,0.0
53623.0,STARLINK-4573,PAYLOAD,2024-06-05 14:29:57,15.0883001,0.0001293,53.2171,236.4331,93.0932,267.0208,-3.3016e-05,-8.13e-06,0.0,0 STARLINK-4573,1 53623U 22104AM  24157.60413367 -.00000813  00000-0 -33016-4 0  9998,2 53623  53.2171 236.4331 0001293  93.0932 267.0208 15.08830010 98810,6917.911,95.438,540.67,538.881,0.0
53623.0,STARLINK-4573,PAYLOAD,2024-06-05 22:26:51,15.08847166,0.0001251,53.2184,234.9435,87.2772,272.8364,-7.6732e-06,-4.1e-06,0.0,0 STARLINK-4573,1 53623U 22104AM  24157.93531996 -.00000410  00000-0 -76732-5 0  9999,2 53623  53.2184 234.9435 0001251  87.2772 272.8364 15.08847166 98865,6917.858,95.437,540.589,538.858,0.0
53623.0,STARLINK-4573,PAYLOAD,2024-06-06 11:09:56,15.08849625,0.0001468,53.2184,232.5656,98.7454,261.3705,8.246e-05,1.025e-05,0.0,0 STARLINK-4573,1 53623U 22104AM  24158.46523883  .00001025  00000-0  82460-4 0  9999,2 53623  53.2184 232.5656 0001468  98.7454 261.3705 15.08849625 98941,6917.851,95.437,540.732,538.7,0.0
53623.0,STARLINK-4573,PAYLOAD,2024-06-07 09:25:18,15.0888975,0.0001977,53.2174,228.4017,77.0766,283.0447,-0.0013849,-0.00022292,0.0,0 STARLINK-4573,1 53623U 22104AM  24159.39257273 -.00022292  00000-0 -13849-2 0  9993,2 53623  53.2174 228.4017 0001977  77.0766 283.0447 15.08889750 98404,6917.728,95.434,540.961,538.226,0.0
53623.0,STARLINK-4573,PAYLOAD,2024-06-07 22:08:25,15.08846089,0.0001482,53.2172,226.0225,102.2973,257.8185,0.00012809,1.751e-05,0.0,0 STARLINK-4573,1 53623U 22104AM  24159.92252097  .00001751  00000-0  12809-3 0  9992,2 53623  53.2172 226.0225 0001482 102.2973 257.8185 15.08846089 99169,6917.862,95.437,540.752,538.702,0.0
53623.0,STARLINK-4573,PAYLOAD,2024-06-08 14:02:16,15.08850582,0.000163,53.2183,223.0483,101.2334,258.8842,0.00010883,1.445e-05,0.0,0 STARLINK-4573,1 53623U 22104AM  24160.58491419  .00001445  00000-0  10883-3 0  9999,2 53623  53.2183 223.0483 0001630 101.2334 258.8842 15.08850582 99264,6917.848,95.437,540.841,538.585,0.0
